[{"OBJECT_NAME":"HULIANWANG DIGUI-65","OBJECT_ID":"2025-174H","EPOCH":"2026-03-14T21:23:44.573568","MEAN_MOTION":13.24423105,"ECCENTRICITY":0.0001347,"INCLINATION":86.4829,"RA_OF_ASC_NODE":283.7505,"ARG_OF_PERICENTER":97.0414,"MEAN_ANOMALY":263.0873,"EPHEMERIS_TYPE":0,"CLASSIFICATION_TYPE":"U","NORAD_CAT_ID":65171,"ELEMENT_SET_NO":999,"REV_AT_EPOCH":2830,"BSTAR":0.0001498134,"MEAN_MOTION_DOT":7.9e-7,"MEAN_MOTION_DDOT":0},{"OBJECT_NAME":"HULIANWANG DIGUI-66","OBJECT_ID":"2025-174J","EPOCH":"2026-03-14T23:01:41.564640","MEAN_MOTION":13.24422752,"ECCENTRICITY":0.00014083,"INCLINATION":86.4865,"RA_OF_ASC_NODE":283.7969,"ARG_OF_PERICENTER":97.7911,"MEAN_ANOMALY":262.3383,"EPHEMERIS_TYPE":0,"CLASSIFICATION_TYPE":"U","NORAD_CAT_ID":65172,"ELEMENT_SET_NO":999,"REV_AT_EPOCH":2831,"BSTAR":0.00013104293,"MEAN_MOTION_DOT":7.1e-7,"MEAN_MOTION_DDOT":0},{"OBJECT_NAME":"HULIANWANG DIGUI-67","OBJECT_ID":"2025-174K","EPOCH":"2026-03-14T21:34:42.650400","MEAN_MOTION":13.24422372,"ECCENTRICITY":0.00013792,"INCLINATION":86.4876,"RA_OF_ASC_NODE":283.8519,"ARG_OF_PERICENTER":96.5519,"MEAN_ANOMALY":263.5772,"EPHEMERIS_TYPE":0,"CLASSIFICATION_TYPE":"U","NORAD_CAT_ID":65173,"ELEMENT_SET_NO":999,"REV_AT_EPOCH":2827,"BSTAR":0.00018374521,"MEAN_MOTION_DOT":9.4e-7,"MEAN_MOTION_DDOT":0},{"OBJECT_NAME":"HULIANWANG DIGUI-68","OBJECT_ID":"2025-178A","EPOCH":"2026-03-14T22:07:07.437504","MEAN_MOTION":13.24424378,"ECCENTRICITY":0.00019967,"INCLINATION":86.4958,"RA_OF_ASC_NODE":45.3272,"ARG_OF_PERICENTER":75.4274,"MEAN_ANOMALY":284.7081,"EPHEMERIS_TYPE":0,"CLASSIFICATION_TYPE":"U","NORAD_CAT_ID":65228,"ELEMENT_SET_NO":999,"REV_AT_EPOCH":2783,"BSTAR":6.6932215e-5,"MEAN_MOTION_DOT":4.3e-7,"MEAN_MOTION_DDOT":0},{"OBJECT_NAME":"HULIANWANG DIGUI-69","OBJECT_ID":"2025-178B","EPOCH":"2026-03-14T21:56:45.407616","MEAN_MOTION":13.24418216,"ECCENTRICITY":0.0001952,"INCLINATION":86.4978,"RA_OF_ASC_NODE":45.3665,"ARG_OF_PERICENTER":77.2186,"MEAN_ANOMALY":282.9166,"EPHEMERIS_TYPE":0,"CLASSIFICATION_TYPE":"U","NORAD_CAT_ID":65229,"ELEMENT_SET_NO":999,"REV_AT_EPOCH":2783,"BSTAR":4.4997283e-5,"MEAN_MOTION_DOT":3.4e-7,"MEAN_MOTION_DDOT":0},{"OBJECT_NAME":"HULIANWANG DIGUI-70","OBJECT_ID":"2025-178C","EPOCH":"2026-03-14T21:45:48.216384","MEAN_MOTION":13.2441932,"ECCENTRICITY":0.00020333,"INCLINATION":86.4917,"RA_OF_ASC_NODE":45.2322,"ARG_OF_PERICENTER":74.9137,"MEAN_ANOMALY":285.2222,"EPHEMERIS_TYPE":0,"CLASSIFICATION_TYPE":"U","NORAD_CAT_ID":65230,"ELEMENT_SET_NO":999,"REV_AT_EPOCH":2783,"BSTAR":6.0966131e-5,"MEAN_MOTION_DOT":4.1e-7,"MEAN_MOTION_DDOT":0},{"OBJECT_NAME":"HULIANWANG DIGUI-71","OBJECT_ID":"2025-178D","EPOCH":"2026-03-14T21:34:52.819680","MEAN_MOTION":13.24420137,"ECCENTRICITY":0.00019931,"INCLINATION":86.4976,"RA_OF_ASC_NODE":45.3544,"ARG_OF_PERICENTER":76.4551,"MEAN_ANOMALY":283.6805,"EPHEMERIS_TYPE":0,"CLASSIFICATION_TYPE":"U","NORAD_CAT_ID":65231,"ELEMENT_SET_NO":999,"REV_AT_EPOCH":2783,"BSTAR":3.2276117e-5,"MEAN_MOTION_DOT":2.9e-7,"MEAN_MOTION_DDOT":0},{"OBJECT_NAME":"HULIANWANG DIGUI-72","OBJECT_ID":"2025-178E","EPOCH":"2026-03-14T21:23:56.134752","MEAN_MOTION":13.24420573,"ECCENTRICITY":0.00020053,"INCLINATION":86.4959,"RA_OF_ASC_NODE":45.3134,"ARG_OF_PERICENTER":77.4302,"MEAN_ANOMALY":282.7056,"EPHEMERIS_TYPE":0,"CLASSIFICATION_TYPE":"U","NORAD_CAT_ID":65232,"ELEMENT_SET_NO":999,"REV_AT_EPOCH":2783,"BSTAR":4.4794896e-5,"MEAN_MOTION_DOT":3.4e-7,"MEAN_MOTION_DDOT":0},{"OBJECT_NAME":"HULIANWANG DIGUI-73","OBJECT_ID":"2025-187A","EPOCH":"2026-03-14T20:41:22.087680","MEAN_MOTION":13.29343195,"ECCENTRICITY":0.00010053,"INCLINATION":50.0046,"RA_OF_ASC_NODE":184.1691,"ARG_OF_PERICENTER":174.7162,"MEAN_ANOMALY":185.372,"EPHEMERIS_TYPE":0,"CLASSIFICATION_TYPE":"U","NORAD_CAT_ID":65305,"ELEMENT_SET_NO":999,"REV_AT_EPOCH":2715,"BSTAR":4.5601353e-5,"MEAN_MOTION_DOT":-1.03e-6,"MEAN_MOTION_DDOT":0},{"OBJECT_NAME":"HULIANWANG DIGUI-74","OBJECT_ID":"2025-187B","EPOCH":"2026-03-14T22:05:32.384544","MEAN_MOTION":13.29343583,"ECCENTRICITY":0.00010175,"INCLINATION":50.0088,"RA_OF_ASC_NODE":183.8818,"ARG_OF_PERICENTER":175.9121,"MEAN_ANOMALY":184.176,"EPHEMERIS_TYPE":0,"CLASSIFICATION_TYPE":"U","NORAD_CAT_ID":65306,"ELEMENT_SET_NO":999,"REV_AT_EPOCH":2716,"BSTAR":3.1925805e-5,"MEAN_MOTION_DOT":-1.09e-6,"MEAN_MOTION_DDOT":0},{"OBJECT_NAME":"HULIANWANG DIGUI-75","OBJECT_ID":"2025-187C","EPOCH":"2026-03-14T19:53:19.407840","MEAN_MOTION":13.29342623,"ECCENTRICITY":0.0001002,"INCLINATION":50.008,"RA_OF_ASC_NODE":184.0525,"ARG_OF_PERICENTER":173.9999,"MEAN_ANOMALY":186.0886,"EPHEMERIS_TYPE":0,"CLASSIFICATION_TYPE":"U","NORAD_CAT_ID":65307,"ELEMENT_SET_NO":999,"REV_AT_EPOCH":2715,"BSTAR":5.0057604e-5,"MEAN_MOTION_DOT":-1.01e-6,"MEAN_MOTION_DDOT":0},{"OBJECT_NAME":"HULIANWANG DIGUI-76","OBJECT_ID":"2025-187D","EPOCH":"2026-03-14T19:29:33.665280","MEAN_MOTION":13.29340055,"ECCENTRICITY":9.846e-5,"INCLINATION":50.0004,"RA_OF_ASC_NODE":184.5,"ARG_OF_PERICENTER":171.5203,"MEAN_ANOMALY":188.5685,"EPHEMERIS_TYPE":0,"CLASSIFICATION_TYPE":"U","NORAD_CAT_ID":65308,"ELEMENT_SET_NO":999,"REV_AT_EPOCH":2714,"BSTAR":6.1426424e-5,"MEAN_MOTION_DOT":-9.6e-7,"MEAN_MOTION_DDOT":0},{"OBJECT_NAME":"HULIANWANG DIGUI-77","OBJECT_ID":"2025-187E","EPOCH":"2026-03-14T21:05:33.633600","MEAN_MOTION":13.29341935,"ECCENTRICITY":0.00010258,"INCLINATION":50.0039,"RA_OF_ASC_NODE":184.2426,"ARG_OF_PERICENTER":172.2802,"MEAN_ANOMALY":187.8086,"EPHEMERIS_TYPE":0,"CLASSIFICATION_TYPE":"U","NORAD_CAT_ID":65309,"ELEMENT_SET_NO":999,"REV_AT_EPOCH":2715,"BSTAR":5.7205503e-5,"MEAN_MOTION_DOT":-9.7e-7,"MEAN_MOTION_DDOT":0},{"OBJECT_NAME":"HULIANWANG DIGUI-78","OBJECT_ID":"2025-187F","EPOCH":"2026-03-14T21:53:40.267968","MEAN_MOTION":13.29342271,"ECCENTRICITY":9.852e-5,"INCLINATION":50.0104,"RA_OF_ASC_NODE":183.866,"ARG_OF_PERICENTER":175.911,"MEAN_ANOMALY":184.1771,"EPHEMERIS_TYPE":0,"CLASSIFICATION_TYPE":"U","NORAD_CAT_ID":65310,"ELEMENT_SET_NO":999,"REV_AT_EPOCH":2716,"BSTAR":3.4912374e-5,"MEAN_MOTION_DOT":-1.08e-6,"MEAN_MOTION_DDOT":0},{"OBJECT_NAME":"HULIANWANG DIGUI-79","OBJECT_ID":"2025-187G","EPOCH":"2026-03-14T19:41:06.880992","MEAN_MOTION":13.29343769,"ECCENTRICITY":0.00010045,"INCLINATION":50.0034,"RA_OF_ASC_NODE":184.5898,"ARG_OF_PERICENTER":172.8714,"MEAN_ANOMALY":187.2173,"EPHEMERIS_TYPE":0,"CLASSIFICATION_TYPE":"U","NORAD_CAT_ID":65311,"ELEMENT_SET_NO":999,"REV_AT_EPOCH":2714,"BSTAR":4.6934652e-5,"MEAN_MOTION_DOT":-1.02e-6,"MEAN_MOTION_DDOT":0},{"OBJECT_NAME":"HULIANWANG DIGUI-80","OBJECT_ID":"2025-187H","EPOCH":"2026-03-14T20:53:29.211936","MEAN_MOTION":13.29342008,"ECCENTRICITY":0.00010146,"INCLINATION":50.0024,"RA_OF_ASC_NODE":184.1764,"ARG_OF_PERICENTER":172.0086,"MEAN_ANOMALY":188.0803,"EPHEMERIS_TYPE":0,"CLASSIFICATION_TYPE":"U","NORAD_CAT_ID":65312,"ELEMENT_SET_NO":999,"REV_AT_EPOCH":2715,"BSTAR":5.4822929e-5,"MEAN_MOTION_DOT":-9.9e-7,"MEAN_MOTION_DDOT":0}]
