HULIANWANG DIGUI-65     
1 65171U 25174H   26073.89148812  .00000079  00000+0  14981-3 0  9999
2 65171  86.4829 283.7505 0001347  97.0414 263.0873 13.24423105 28306
HULIANWANG DIGUI-66     
1 65172U 25174J   26073.95950885  .00000071  00000+0  13104-3 0  9996
2 65172  86.4865 283.7969 0001408  97.7911 262.3383 13.24422752 28314
HULIANWANG DIGUI-67     
1 65173U 25174K   26073.89910475  .00000094  00000+0  18375-3 0  9991
2 65173  86.4876 283.8519 0001379  96.5519 263.5772 13.24422372 28275
HULIANWANG DIGUI-68     
1 65228U 25178A   26073.92161386  .00000043  00000+0  66932-4 0  9996
2 65228  86.4958  45.3272 0001996  75.4274 284.7081 13.24424378 27830
HULIANWANG DIGUI-69     
1 65229U 25178B   26073.91441444  .00000034  00000+0  44997-4 0  9999
2 65229  86.4978  45.3665 0001952  77.2186 282.9166 13.24418216 27831
HULIANWANG DIGUI-70     
1 65230U 25178C   26073.90680806  .00000041  00000+0  60966-4 0  9999
2 65230  86.4917  45.2322 0002033  74.9137 285.2222 13.24419320 27832
HULIANWANG DIGUI-71     
1 65231U 25178D   26073.89922245  .00000029  00000+0  32276-4 0  9993
2 65231  86.4976  45.3544 0001993  76.4551 283.6805 13.24420137 27833
HULIANWANG DIGUI-72     
1 65232U 25178E   26073.89162193  .00000034  00000+0  44795-4 0  9997
2 65232  86.4959  45.3134 0002005  77.4302 282.7056 13.24420573 27832
HULIANWANG DIGUI-73     
1 65305U 25187A   26073.86206120 -.00000103  00000+0  45601-4 0  9999
2 65305  50.0046 184.1691 0001005 174.7162 185.3720 13.29343195 27151
HULIANWANG DIGUI-74     
1 65306U 25187B   26073.92051371 -.00000109  00000+0  31926-4 0  9994
2 65306  50.0088 183.8818 0001017 175.9121 184.1760 13.29343583 27169
HULIANWANG DIGUI-75     
1 65307U 25187C   26073.82869685 -.00000101  00000+0  50058-4 0  9998
2 65307  50.0080 184.0525 0001002 173.9999 186.0886 13.29342623 27158
HULIANWANG DIGUI-76     
1 65308U 25187D   26073.81219520 -.00000096  00000+0  61426-4 0  9999
2 65308  50.0004 184.5000 0000984 171.5203 188.5685 13.29340055 27148
HULIANWANG DIGUI-77     
1 65309U 25187E   26073.87886150 -.00000097  00000+0  57206-4 0  9997
2 65309  50.0039 184.2426 0001025 172.2802 187.8086 13.29341935 27152
HULIANWANG DIGUI-78     
1 65310U 25187F   26073.91227162 -.00000108  00000+0  34912-4 0  9998
2 65310  50.0104 183.8660 0000985 175.9110 184.1771 13.29342271 27164
HULIANWANG DIGUI-79     
1 65311U 25187G   26073.82021853 -.00000102  00000+0  46935-4 0  9990
2 65311  50.0034 184.5898 0001004 172.8714 187.2173 13.29343769 27148
HULIANWANG DIGUI-80     
1 65312U 25187H   26073.87047699 -.00000099  00000+0  54823-4 0  9992
2 65312  50.0024 184.1764 0001014 172.0086 188.0803 13.29342008 27156
